NORAD_CAT_ID,OBJECT_NAME,OBJECT_TYPE,EPOCH,MEAN_MOTION,ECCENTRICITY,INCLINATION,RA_OF_ASC_NODE,ARG_OF_PERICENTER,MEAN_ANOMALY,BSTAR,MEAN_MOTION_DOT,MEAN_MOTION_DDOT,TLE_LINE0,TLE_LINE1,TLE_LINE2,SEMIMAJOR_AXIS,PERIOD,APOGEE,PERIGEE,DECAYED
50834.0,STARLINK-3331,PAYLOAD,2022-07-01 04:19:14,15.08836963,0.0002953,53.2183,108.3389,61.5324,298.5965,3.8251e-05,3.2e-06,0.0,0 STARLINK-3331,1 50834U 22001AH  22182.18003341  .00000320  00000-0  38251-4 0  9998,2 50834  53.2183 108.3389 0002953  61.5324 298.5965 15.08836963 28111,6917.89,95.438,541.798,537.712,0.0
50834.0,STARLINK-3331,PAYLOAD,2022-07-01 12:16:10,15.08832739,0.0002918,53.2182,106.8526,62.5706,297.5583,0.00015783,2.224e-05,0.0,0 STARLINK-3331,1 50834U 22001AH  22182.51123468  .00002224  00000-0  15783-3 0  9997,2 50834  53.2182 106.8526 0002918  62.5706 297.5583 15.08832739 26886,6917.903,95.438,541.786,537.749,0.0
50834.0,STARLINK-3331,PAYLOAD,2022-07-02 07:20:47,15.08845316,0.0002972,53.2183,103.2842,64.3263,295.8036,0.00019079,2.75e-05,0.0,0 STARLINK-3331,1 50834U 22001AH  22183.30610942  .00002750  00000-0  19079-3 0  9999,2 50834  53.2183 103.2842 0002972  64.3263 295.8036 15.08845316 28282,6917.864000000001,95.437,541.785,537.673,0.0
50834.0,STARLINK-3331,PAYLOAD,2022-07-02 12:06:56,15.08850186,0.0002977,53.2184,102.3922,64.7101,295.4199,0.00022388,3.277e-05,0.0,0 STARLINK-3331,1 50834U 22001AH  22183.50482576  .00003277  00000-0  22388-3 0  9993,2 50834  53.2184 102.3922 0002977  64.7101 295.4199 15.08850186 27031,6917.849,95.437,541.774,537.655,0.0
50834.0,STARLINK-3331,PAYLOAD,2022-07-03 02:25:24,15.08865669,0.000302,53.2175,99.7162,65.8727,294.2581,0.00039772,6.052e-05,0.0,0 STARLINK-3331,1 50834U 22001AH  22184.10097819  .00006052  00000-0  39772-3 0  9991,2 50834  53.2175  99.7162 0003020  65.8727 294.2581 15.08865669 28408,6917.802,95.436,541.756,537.578,0.0
50834.0,STARLINK-3331,PAYLOAD,2022-07-03 11:57:43,15.08856401,0.0003026,53.2171,97.9321,65.9329,294.198,0.00013674,1.889e-05,0.0,0 STARLINK-3331,1 50834U 22001AH  22184.49841851  .00001889  00000-0  13674-3 0  9992,2 50834  53.2171  97.9321 0003026  65.9329 294.1980 15.08856401 28468,6917.83,95.437,541.789,537.602,0.0
50834.0,STARLINK-3331,PAYLOAD,2022-07-03 21:30:01,15.08853752,0.0003088,53.2174,96.1481,65.8519,294.2796,6.811e-05,7.96e-06,0.0,0 STARLINK-3331,1 50834U 22001AH  22184.89585623  .00000796  00000-0  68110-4 0  9990,2 50834  53.2174  96.1481 0003088  65.8519 294.2796 15.08853752 27244,6917.8380000000025,95.437,541.84,537.567,0.0
50834.0,STARLINK-3331,PAYLOAD,2022-07-04 03:51:34,15.08845091,0.0002968,53.2174,94.959,66.3227,293.8077,-9.5871e-05,-1.814e-05,0.0,0 STARLINK-3331,1 50834U 22001AH  22185.16081825 -.00001814  00000-0 -95871-4 0  9994,2 50834  53.2174  94.9590 0002968  66.3227 293.8077 15.08845091 28569,6917.865,95.437,541.783,537.677,0.0
50834.0,STARLINK-3331,PAYLOAD,2022-07-04 05:26:57,15.08840391,0.0002928,53.2171,94.6614,67.1411,292.9890000000001,-0.00017656,-3.098e-05,0.0,0 STARLINK-3331,1 50834U 22001AH  22185.22705981 -.00003098  00000-0 -17656-3 0  9997,2 50834  53.2171  94.6614 0002928  67.1411 292.9890 15.08840391 27290,6917.879,95.438,541.77,537.719,0.0
50834.0,STARLINK-3331,PAYLOAD,2022-07-04 21:20:49,15.08831517,0.0002861,53.2171,91.6879,66.4617,293.6676,-0.00019438,-3.3799999999999995e-05,0.0,0 STARLINK-3331,1 50834U 22001AH  22185.88946586 -.00003380  00000-0 -19438-3 0  9991,2 50834  53.2171  91.6879 0002861  66.4617 293.6676 15.08831517 28679,6917.906,95.438,541.751,537.7919999999998,0.0
50834.0,STARLINK-3331,PAYLOAD,2022-07-04 22:56:13,15.0883234,0.0002926,53.2171,91.3906,66.461,293.6689,-0.0001559,-2.769e-05,0.0,0 STARLINK-3331,1 50834U 22001AH  22185.95570633 -.00002769  00000-0 -15590-3 0  9990,2 50834  53.2171  91.3906 0002926  66.4610 293.6689 15.08832340 27401,6917.904,95.438,541.793,537.745,0.0
50834.0,STARLINK-3331,PAYLOAD,2022-07-05 10:03:55,15.08834315,0.0002953,53.2172,89.3088,67.6425,292.488,0.00018315,2.627e-05,0.0,0 STARLINK-3331,1 50834U 22001AH  22186.41938976  .00002627  00000-0  18315-3 0  9999,2 50834  53.2172  89.3088 0002953  67.6425 292.4880 15.08834315 27478,6917.898,95.438,541.806,537.72,0.0
50834.0,STARLINK-3331,PAYLOAD,2022-07-05 21:11:37,15.08839004,0.0002826,53.2172,87.2271,66.6815,293.4475,0.00028619,4.269e-05,0.0,0 STARLINK-3331,1 50834U 22001AH  22186.88307076  .00004269  00000-0  28619-3 0  9993,2 50834  53.2172  87.2271 0002826  66.6815 293.4475 15.08839004 27549,6917.8830000000025,95.438,541.703,537.793,0.0
50834.0,STARLINK-3331,PAYLOAD,2022-07-06 09:54:42,15.08847653,0.0002881,53.2173,84.8482,68.5828,291.5471,0.00046012,7.044e-05,0.0,0 STARLINK-3331,1 50834U 22001AH  22187.41299016  .00007044  00000-0  46012-3 0  9998,2 50834  53.2173  84.8482 0002881  68.5828 291.5471 15.08847653 27626,6917.857,95.437,541.715,537.729,0.0
50834.0,STARLINK-3331,PAYLOAD,2022-07-07 04:59:19,15.08850369,0.0002816,53.2173,81.2799,71.3139,288.8158,0.0002127,3.099e-05,0.0,0 STARLINK-3331,1 50834U 22001AH  22188.20786406  .00003099  00000-0  21270-3 0  9995,2 50834  53.2173  81.2799 0002816  71.3139 288.8158 15.08850369 29028,6917.849,95.437,541.6619999999998,537.766,0.0
50834.0,STARLINK-3331,PAYLOAD,2022-07-07 19:17:47,15.08847397,0.0002852,53.2174,78.6037,72.71,287.4204,8.734e-05,1.102e-05,0.0,0 STARLINK-3331,1 50834U 22001AH  22188.80402301  .00001102  00000-0  87340-4 0  9994,2 50834  53.2174  78.6037 0002852  72.7100 287.4204 15.08847397 27838,6917.858,95.437,541.696,537.75,0.0
50834.0,STARLINK-3331,PAYLOAD,2022-07-08 03:14:43,15.08845227,0.0002809,53.2178,77.1168,73.5368,286.5932,5.8797e-05,6.47e-06,0.0,0 STARLINK-3331,1 50834U 22001AH  22189.13522370  .00000647  00000-0  58797-4 0  9997,2 50834  53.2178  77.1168 0002809  73.5368 286.5932 15.08845227 29164,6917.864000000001,95.437,541.673,537.786,0.0
50834.0,STARLINK-3331,PAYLOAD,2022-07-08 09:36:15,15.08848912,0.0002858,53.218,75.9274,72.0506,288.0798,0.00010288,1.35e-05,0.0,0 STARLINK-3331,1 50834U 22001AH  22189.40018108  .00001350  00000-0  10288-3 0  9990,2 50834  53.2180  75.9274 0002858  72.0506 288.0798 15.08848912 27926,6917.853,95.437,541.695,537.741,0.0
50834.0,STARLINK-3331,PAYLOAD,2022-07-08 20:43:57,15.08842035,0.0002845,53.2181,73.8459,73.1121,287.0183,1.2423e-05,-9.1e-07,0.0,0 STARLINK-3331,1 50834U 22001AH  22189.86386321 -.00000091  00000-0  12423-4 0  9991,2 50834  53.2181  73.8459 0002845  73.1121 287.0183 15.08842035 27994,6917.874,95.437,541.707,537.771,0.0
50834.0,STARLINK-3331,PAYLOAD,2022-07-09 04:40:53,15.08838085,0.0003123,53.2182,72.3597,70.7395,289.3935,-0.00032867,-5.516e-05,0.0,0 STARLINK-3331,1 50834U 22001AH  22190.19506564 -.00005516  00000-0 -32867-3 0  9993,2 50834  53.2182  72.3597 0003123  70.7395 289.3935 15.08838085 29327,6917.886,95.438,541.9119999999998,537.591,0.0
50834.0,STARLINK-3331,PAYLOAD,2022-07-09 09:27:03,15.08830534,0.0002743,53.218,71.4671,73.6195,286.5099,-0.0001049,-1.957e-05,0.0,0 STARLINK-3331,1 50834U 22001AH  22190.39378973 -.00001957  00000-0 -10490-3 0  9999,2 50834  53.2180  71.4671 0002743  73.6195 286.5099 15.08830534 28077,6917.909000000002,95.438,541.672,537.877,0.0
50834.0,STARLINK-3331,PAYLOAD,2022-07-09 15:48:36,15.08831595,0.0002703,53.2179,70.2775,73.8207,286.3082,-4.6077e-05,-1.022e-05,0.0,0 STARLINK-3331,1 50834U 22001AH  22190.65875060 -.00001022  00000-0 -46077-4 0  9991,2 50834  53.2179  70.2775 0002703  73.8207 286.3082 15.08831595 28112,6917.906,95.438,541.641,537.901,0.0
50834.0,STARLINK-3331,PAYLOAD,2022-07-10 02:56:17,15.08837855,0.0002603,53.218,68.1962,74.1941,285.9338,9.7471e-05,1.263e-05,0.0,0 STARLINK-3331,1 50834U 22001AH  22191.12243012  .00001263  00000-0  97471-4 0  9999,2 50834  53.2180  68.1962 0002603  74.1941 285.9338 15.08837855 28187,6917.887,95.438,541.553,537.951,0.0
50834.0,STARLINK-3331,PAYLOAD,2022-07-10 18:50:09,15.08846101,0.0002544,53.2181,65.2229,74.9853,285.1421,0.00027331,4.065e-05,0.0,0 STARLINK-3331,1 50834U 22001AH  22191.78482788  .00004065  00000-0  27331-3 0  9996,2 50834  53.2181  65.2229 0002544  74.9853 285.1421 15.08846101 29568,6917.861999999999,95.437,541.487,537.967,0.0
50834.0,STARLINK-3331,PAYLOAD,2022-07-11 02:47:05,15.08837736,0.0002486,53.2182,63.7362,75.2779,284.8488,0.00013744,1.9e-05,0.0,0 STARLINK-3331,1 50834U 22001AH  22192.11603222  .00001900  00000-0  13744-3 0  9990,2 50834  53.2182  63.7362 0002486  75.2779 284.8488 15.08837736 29615,6917.887,95.438,541.472,538.033,0.0
50834.0,STARLINK-3331,PAYLOAD,2022-07-11 09:08:37,15.08839896,0.0002364,53.2175,62.5479,76.7024,283.4231,0.00018578,2.67e-05,0.0,0 STARLINK-3331,1 50834U 22001AH  22192.38099195  .00002670  00000-0  18578-3 0  9992,2 50834  53.2175  62.5479 0002364  76.7024 283.4231 15.08839896 28379,6917.880999999999,95.438,541.381,538.11,0.0
50834.0,STARLINK-3331,PAYLOAD,2022-07-11 20:16:19,15.08851207,0.0002451,53.2181,60.4654,75.4003,284.7261,0.0003619,5.478e-05,0.0,0 STARLINK-3331,1 50834U 22001AH  22192.84466818  .00005478  00000-0  36190-3 0  9992,2 50834  53.2181  60.4654 0002451  75.4003 284.7261 15.08851207 28443,6917.846,95.437,541.4069999999998,538.016,0.0
50834.0,STARLINK-3331,PAYLOAD,2022-07-12 02:37:52,15.08844378,0.0002327,53.2181,59.2758,77.9668,282.1585,0.0001848,2.654e-05,0.0,0 STARLINK-3331,1 50834U 22001AH  22193.10962995  .00002654  00000-0  18480-3 0  9994,2 50834  53.2181  59.2758 0002327  77.9668 282.1585 15.08844378 28486,6917.8669999999975,95.437,541.342,538.122,0.0
50834.0,STARLINK-3331,PAYLOAD,2022-07-12 20:07:06,15.08860851,0.0002434,53.218,56.0054,77.5355,282.5909,0.00070582,0.00010969,0.0,0 STARLINK-3331,1 50834U 22001AH  22193.83826537  .00010969  00000-0  70582-3 0  9994,2 50834  53.2180  56.0054 0002434  77.5355 282.5909 15.08860851 28597,6917.816999999999,95.436,541.365,537.998,0.0
